*******************************************************************************
 Revised: Jul 31, 2013              Mercury                             199 / 1

 GEOPHYSICAL DATA (updated 2008-Feb-07):
  Mean radius (km)      =  2440(+-1)     Density (g cm^-3)     =  5.427
  Mass (10^23 kg )      =     3.302      Flattening, f         =  
  Volume (x10^10 km^3)  =     6.085      Semi-major axis       = 
  Sidereal rot. period  =    58.6462 d   Rot. Rate (x10^5 s)   =  0.124001
  Mean solar day        =   175.9421 d   Polar gravity ms^-2   =
  Mom. of Inertia       =     0.33       Equ. gravity  ms^-2   =  3.701     
  Core radius (km)      = ~1600          Potential Love # k2   =

  GM (km^3 s^-2)        = 22032.09       Equatorial Radius, Re =    2440 km
  GM 1-sigma (km^3 s^-2)=   +-0.91       Mass ratio (sun/plnt) = 6023600
 
  Atmos. pressure (bar) =                Max. angular diam.    = 11.0"   
  Mean Temperature (K)  =                Visual mag. V(1,0)    = -0.42 
  Geometric albedo      =   0.106        Obliquity to orbit[1] = 2.11' +/- 0.1'  
  Sidereal orb. per.    =   0.2408467 y  Mean Orbit vel.  km/s = 47.362 
  Sidereal orb. per.    =  87.969257  d  Escape vel. km/s      =  4.435
  Hill's sphere rad. Rp =  94.4          Planetary Solar Const = 9936.9 (Wm^2)

[1] Margot et al., Science 316, 2007
*******************************************************************************
 
 
*******************************************************************************
Ephemeris / WWW_USER Sat Oct 15 02:22:30 2016 Pasadena, USA      / Horizons    
*******************************************************************************
Target body name: Mercury (199)                   {source: DE431mx}
Center body name: Solar System Barycenter (0)     {source: DE431mx}
Center-site name: BODY CENTER
*******************************************************************************
Start time      : A.D. 2016-Oct-04 00:00:00.0000 TDB
Stop  time      : A.D. 2016-Nov-03 00:00:00.0000 TDB
Step-size       : 1440 minutes
*******************************************************************************
Center geodetic : 0.00000000,0.00000000,0.0000000 {E-lon(deg),Lat(deg),Alt(km)}
Center cylindric: 0.00000000,0.00000000,0.0000000 {E-lon(deg),Dxy(km),Dz(km)}
Center radii    : (undefined)                                                  
Output units    : AU-D                                                         
Output type     : GEOMETRIC cartesian states
Output format   : 3 (position, velocity, LT, range, range-rate)
Reference frame : ICRF/J2000.0                                                 
Coordinate systm: Ecliptic and Mean Equinox of Reference Epoch                 
*******************************************************************************
            JDTDB,            Calendar Date (TDB),                      X,                      Y,                      Z,                     VX,                     VY,                     VZ,                     LT,                     RG,                     RR,
**************************************************************************************************************************************************************************************************************************************************************************
$$SOE
2457689.500000000, A.D. 2016-Oct-28 00:00:00.0000, -3.525930311402279E-01, -2.503048929680968E-01,  1.177417640403648E-02,  1.056048523954984E-02, -2.165644928847499E-02, -2.739136357707171E-03,  2.498290672375200E-03,  4.325656207818850E-01,  3.848920407998373E-03,
2457690.500000000, A.D. 2016-Oct-29 00:00:00.0000, -3.414150233477386E-01, -2.715042839617632E-01,  9.015734278754770E-03,  1.178377357897397E-02, -2.073396553818716E-02, -2.775985606773053E-03,  2.519874452475741E-03,  4.363027364591148E-01,  3.624033165098824E-03,
2457691.500000000, A.D. 2016-Oct-30 00:00:00.0000, -3.290488558132698E-01, -2.917568504660810E-01,  6.225654600999372E-03,  1.293694852567256E-02, -1.976354561437756E-02, -2.802485555497299E-03,  2.540138149840773E-03,  4.398112868960051E-01,  3.391942066429350E-03,
2457692.500000000, A.D. 2016-Oct-31 00:00:00.0000, -3.155642021815850E-01, -3.110168173389441E-01,  3.414069746092529E-03,  1.402089653688168E-02, -1.874943821916873E-02, -2.819064698130418E-03,  2.559042704904336E-03,  4.430845091383557E-01,  3.153513742799188E-03,
2457693.500000000, A.D. 2016-Nov-01 00:00:00.0000, -3.010298352613249E-01, -3.292424455374020E-01,  5.906996481205331E-04,  1.503652657578380E-02, -1.769547424016154E-02, -2.826119453305124E-03,  2.576553810189395E-03,  4.461164630306573E-01,  2.909528823885481E-03,
2457694.500000000, A.D. 2016-Nov-02 00:00:00.0000, -2.855136220793952E-01, -3.463956360301057E-01, -2.235116288781139E-03,  1.598473614028352E-02, -1.660510975266277E-02, -2.824014561244766E-03,  2.592641441787163E-03,  4.489019500942512E-01,  2.660691586263750E-03,
2457695.500000000, A.D. 2016-Nov-03 00:00:00.0000, -2.690825496758838E-01, -3.624415753426173E-01, -5.054387860848483E-03,  1.686638354259830E-02, -1.548146627387490E-02, -2.813083829885686E-03,  2.607279444637318E-03,  4.514364417208258E-01,  2.407638936017883E-03,
